IRIDIUM 26              
1 24903U 97043A   25250.90090351  .00000482  00000+0  15548-3 0  9991
2 24903  86.3897  75.8483 0002167  94.6592 265.4853 14.37201649468623
IRIDIUM 22              
1 24907U 97043E   25250.89923856  .00000424  00000+0  13939-3 0  9996
2 24907  86.3899  79.4629 0002235  90.0890 270.0563 14.36008181468645
DUMMY MASS 1            
1 24925U 97048A   25250.51518136  .00000536  00000+0  56680-4 0  9996
2 24925  86.3296  97.2533 0005599 194.2805 165.8263 14.87047227517369
DUMMY MASS 2            
1 24926U 97048B   25250.82756450  .00000486  00000+0  51452-4 0  9990
2 24926  86.3298  98.7327 0005932 209.3085 150.7808 14.86798961517183
IRIDIUM 29              
1 24944U 97051A   25250.89253119  .00000467  00000+0  15237-3 0  9994
2 24944  86.3922 109.2084 0002154  81.6905 278.4537 14.36528582465140
IRIDIUM 33              
1 24946U 97051C   25250.89571176  .00000293  00000+0  96148-4 0  9990
2 24946  86.3836 108.4742 0008440 154.4023 205.7592 14.34935948464602
IRIDIUM 28              
1 24948U 97051E   25250.88338588  .00000403  00000+0  12837-3 0  9994
2 24948  86.3924 106.6790 0002202 101.2433 258.9012 14.37436819465727
IRIDIUM 36              
1 24967U 97056C   25250.76412884  .00000466  00000+0  14880-3 0  9998
2 24967  86.3996 138.3416 0002345  89.2099 270.9368 14.37665745464083
